{
  "type": "FeatureCollection",
  "features": [
    {
      "type": "Feature",
      "properties": {
        "norad_id": 43581,
        "name": "BEIDOU-3 M5 (C23)",
        "group": "gnss",
        "lat": 44.04645264049225,
        "lon": -126.69148206483338,
        "alt_km": 21520.535111965608,
        "timestamp": "2025-12-08T13:49:32.034999+00:00",
        "meta_object_name": "BEIDOU-3 M5 (C23)",
        "meta_object_id": "2018-062A",
        "meta_epoch": "2025-12-07T09:56:06.121536",
        "meta_mean_motion": 1.86228654,
        "meta_eccentricity": 0.00021243,
        "meta_inclination": 54.089,
        "meta_ra_of_asc_node": 188.8244,
        "meta_arg_of_pericenter": 353.2088,
        "meta_mean_anomaly": 6.859,
        "meta_ephemeris_type": 0,
        "meta_classification_type": "U",
        "meta_norad_cat_id": 43581,
        "meta_element_set_no": 999,
        "meta_rev_at_epoch": 5006,
        "meta_bstar": 0,
        "meta_mean_motion_dot": 5.9e-07,
        "meta_mean_motion_ddot": 0,
        "tle_line1": "1 43581U 18062A   25341.41395974  .00000059  00000+0  00000+0 0  9997",
        "tle_line2": "2 43581  54.0890 188.8244 0002124 353.2088   6.8590  1.86228654 50063"
      },
      "geometry": {
        "type": "Point",
        "coordinates": [
          -126.69148206483338,
          44.04645264049225
        ]
      }
    },
    {
      "type": "Feature",
      "properties": {
        "norad_id": 43582,
        "name": "BEIDOU-3 M6 (C24)",
        "group": "gnss",
        "lat": 23.019424438633315,
        "lon": -9.155958293597749,
        "alt_km": 21530.9089728803,
        "timestamp": "2025-12-08T13:49:32.035011+00:00",
        "meta_object_name": "BEIDOU-3 M6 (C24)",
        "meta_object_id": "2018-062B",
        "meta_epoch": "2025-12-07T19:32:10.570272",
        "meta_mean_motion": 1.86229692,
        "meta_eccentricity": 0.00077761,
        "meta_inclination": 54.0886,
        "meta_ra_of_asc_node": 188.7999,
        "meta_arg_of_pericenter": 46.2812,
        "meta_mean_anomaly": 313.8511,
        "meta_ephemeris_type": 0,
        "meta_classification_type": "U",
        "meta_norad_cat_id": 43582,
        "meta_element_set_no": 999,
        "meta_rev_at_epoch": 5007,
        "meta_bstar": 0,
        "meta_mean_motion_dot": 5.5e-07,
        "meta_mean_motion_ddot": 0,
        "tle_line1": "1 43582U 18062B   25341.81401123  .00000055  00000+0  00000+0 0  9992",
        "tle_line2": "2 43582  54.0886 188.7999 0007776  46.2812 313.8511  1.86229692 50075"
      },
      "geometry": {
        "type": "Point",
        "coordinates": [
          -9.155958293597749,
          23.019424438633315
        ]
      }
    },
    {
      "type": "Feature",
      "properties": {
        "norad_id": 43602,
        "name": "BEIDOU-3 M12 (C26)",
        "group": "gnss",
        "lat": -10.35054008382709,
        "lon": 15.092580830702941,
        "alt_km": 21552.53435658052,
        "timestamp": "2025-12-08T13:49:32.035025+00:00",
        "meta_object_name": "BEIDOU-3 M12 (C26)",
        "meta_object_id": "2018-067A",
        "meta_epoch": "2025-12-07T18:02:34.116000",
        "meta_mean_motion": 1.86227677,
        "meta_eccentricity": 0.00091651,
        "meta_inclination": 54.1832,
        "meta_ra_of_asc_node": 187.5325,
        "meta_arg_of_pericenter": 40.8071,
        "meta_mean_anomaly": 319.3279,
        "meta_ephemeris_type": 0,
        "meta_classification_type": "U",
        "meta_norad_cat_id": 43602,
        "meta_element_set_no": 999,
        "meta_rev_at_epoch": 4955,
        "meta_bstar": 0,
        "meta_mean_motion_dot": 5.6e-07,
        "meta_mean_motion_ddot": 0,
        "tle_line1": "1 43602U 18067A   25341.75178375  .00000056  00000+0  00000+0 0  9994",
        "tle_line2": "2 43602  54.1832 187.5325 0009165  40.8071 319.3279  1.86227677 49555"
      },
      "geometry": {
        "type": "Point",
        "coordinates": [
          15.092580830702941,
          -10.35054008382709
        ]
      }
    },
    {
      "type": "Feature",
      "properties": {
        "norad_id": 43603,
        "name": "BEIDOU-3 M11 (C25)",
        "group": "gnss",
        "lat": 52.288555685403665,
        "lon": -61.64601511259718,
        "alt_km": 21515.9005152526,
        "timestamp": "2025-12-08T13:49:32.035036+00:00",
        "meta_object_name": "BEIDOU-3 M11 (C25)",
        "meta_object_id": "2018-067B",
        "meta_epoch": "2025-12-07T08:23:01.597056",
        "meta_mean_motion": 1.8622716,
        "meta_eccentricity": 0.00055888,
        "meta_inclination": 54.1804,
        "meta_ra_of_asc_node": 187.5103,
        "meta_arg_of_pericenter": 36.6021,
        "meta_mean_anomaly": 323.5051,
        "meta_ephemeris_type": 0,
        "meta_classification_type": "U",
        "meta_norad_cat_id": 43603,
        "meta_element_set_no": 999,
        "meta_rev_at_epoch": 4957,
        "meta_bstar": 0,
        "meta_mean_motion_dot": 6e-07,
        "meta_mean_motion_ddot": 0,
        "tle_line1": "1 43603U 18067B   25341.34932404  .00000060  00000+0  00000+0 0  9996",
        "tle_line2": "2 43603  54.1804 187.5103 0005588  36.6021 323.5051  1.86227160 49576"
      },
      "geometry": {
        "type": "Point",
        "coordinates": [
          -61.64601511259718,
          52.288555685403665
        ]
      }
    },
    {
      "type": "Feature",
      "properties": {
        "norad_id": 43622,
        "name": "BEIDOU-3 M13 (C32)",
        "group": "gnss",
        "lat": 38.58613065916087,
        "lon": -142.94047594131223,
        "alt_km": 21538.837604791737,
        "timestamp": "2025-12-08T13:49:32.035047+00:00",
        "meta_object_name": "BEIDOU-3 M13 (C32)",
        "meta_object_id": "2018-072A",
        "meta_epoch": "2025-12-03T13:07:53.541408",
        "meta_mean_motion": 1.86230692,
        "meta_eccentricity": 0.00056735,
        "meta_inclination": 56.4512,
        "meta_ra_of_asc_node": 69.1249,
        "meta_arg_of_pericenter": 298.6305,
        "meta_mean_anomaly": 61.3164,
        "meta_ephemeris_type": 0,
        "meta_classification_type": "U",
        "meta_norad_cat_id": 43622,
        "meta_element_set_no": 999,
        "meta_rev_at_epoch": 4901,
        "meta_bstar": 0,
        "meta_mean_motion_dot": -5e-07,
        "meta_mean_motion_ddot": 0,
        "tle_line1": "1 43622U 18072A   25337.54714747 -.00000050  00000+0  00000+0 0  9998",
        "tle_line2": "2 43622  56.4512  69.1249 0005673 298.6305  61.3164  1.86230692 49019"
      },
      "geometry": {
        "type": "Point",
        "coordinates": [
          -142.94047594131223,
          38.58613065916087
        ]
      }
    },
    {
      "type": "Feature",
      "properties": {
        "norad_id": 43623,
        "name": "BEIDOU-3 M14 (C33)",
        "group": "gnss",
        "lat": -33.75341773516456,
        "lon": -84.76346992821708,
        "alt_km": 21535.540786508693,
        "timestamp": "2025-12-08T13:49:32.035058+00:00",
        "meta_object_name": "BEIDOU-3 M14 (C33)",
        "meta_object_id": "2018-072B",
        "meta_epoch": "2025-12-08T05:53:08.473344",
        "meta_mean_motion": 1.8623075,
        "meta_eccentricity": 0.00032562,
        "meta_inclination": 56.4569,
        "meta_ra_of_asc_node": 68.9631,
        "meta_arg_of_pericenter": 332.5752,
        "meta_mean_anomaly": 27.4289,
        "meta_ephemeris_type": 0,
        "meta_classification_type": "U",
        "meta_norad_cat_id": 43623,
        "meta_element_set_no": 999,
        "meta_rev_at_epoch": 4909,
        "meta_bstar": 0,
        "meta_mean_motion_dot": -4.5e-07,
        "meta_mean_motion_ddot": 0,
        "tle_line1": "1 43623U 18072B   25342.24523696 -.00000045  00000+0  00000+0 0  9997",
        "tle_line2": "2 43623  56.4569  68.9631 0003256 332.5752  27.4289  1.86230750 49097"
      },
      "geometry": {
        "type": "Point",
        "coordinates": [
          -84.76346992821708,
          -33.75341773516456
        ]
      }
    },
    {
      "type": "Feature",
      "properties": {
        "norad_id": 43647,
        "name": "BEIDOU-3 M16 (C35)",
        "group": "gnss",
        "lat": 46.80377883271886,
        "lon": 76.6330060923575,
        "alt_km": 21524.77175135883,
        "timestamp": "2025-12-08T13:49:32.035069+00:00",
        "meta_object_name": "BEIDOU-3 M16 (C35)",
        "meta_object_id": "2018-078A",
        "meta_epoch": "2025-12-07T20:47:16.965312",
        "meta_mean_motion": 1.86232177,
        "meta_eccentricity": 0.00071256,
        "meta_inclination": 54.2666,
        "meta_ra_of_asc_node": 306.6916,
        "meta_arg_of_pericenter": 18.9999,
        "meta_mean_anomaly": 341.0132,
        "meta_ephemeris_type": 0,
        "meta_classification_type": "U",
        "meta_norad_cat_id": 43647,
        "meta_element_set_no": 999,
        "meta_rev_at_epoch": 4859,
        "meta_bstar": 0,
        "meta_mean_motion_dot": -7.1e-07,
        "meta_mean_motion_ddot": 0,
        "tle_line1": "1 43647U 18078A   25341.86616858 -.00000071  00000+0  00000+0 0  9998",
        "tle_line2": "2 43647  54.2666 306.6916 0007125  18.9999 341.0132  1.86232177 48593"
      },
      "geometry": {
        "type": "Point",
        "coordinates": [
          76.6330060923575,
          46.80377883271886
        ]
      }
    }
  ]
}